STARLINK-32781          
1 62848U 25019V   25247.94591709  .00034606  00000+0  12604-2 0  9992
2 62848  43.0018  57.9794 0002054 272.5705  87.4911 15.27600433 33845
STARLINK-32809          
1 62849U 25019W   25248.18304843  .00032374  00000+0  11805-2 0  9993
2 62849  43.0043  56.3187 0001903 259.9229 100.1408 15.27589869 33882
STARLINK-32868          
1 62854U 25022A   25248.25222647  .00030792  00000+0  10467-2 0  9997
2 62854  53.1581 270.6105 0001303  84.2473 275.8677 15.30224554 34321
STARLINK-32867          
1 62855U 25022B   25248.25539159  .00042508  00000+0  14374-2 0  9996
2 62855  53.1587 270.6214 0001453  80.9945 279.1220 15.30238075 33516
STARLINK-32860          
1 62856U 25022C   25248.24389784  .00028730  00000+0  97765-3 0  9990
2 62856  53.1570 271.2677 0001505  91.4014 268.7159 15.30224144 33507
STARLINK-32873          
1 62857U 25022D   25248.24284368  .00020054  00000+0  68710-3 0  9992
2 62857  53.1574 271.2655 0001196  40.0320 320.0769 15.30212552 33503
STARLINK-32866          
1 62858U 25022E   25248.25961428  .00045942  00000+0  15518-2 0  9993
2 62858  53.1582 270.6558 0001541  77.4050 282.7123 15.30238685 33510
STARLINK-32869          
1 62859U 25022F   25248.27121687  .00053013  00000+0  17870-2 0  9992
2 62859  53.1582 270.7176 0001092  99.1329 260.9795 15.30240638 33513
STARLINK-32831          
1 62860U 25022G   25248.27966440  .00044177  00000+0  14947-2 0  9991
2 62860  53.1564 270.7852 0001218  75.1828 284.9307 15.30203118 33500
STARLINK-32859          
1 62861U 25022H   25248.24812797  .00032392  00000+0  11008-2 0  9995
2 62861  53.1589 271.2953 0001370  91.1135 269.0022 15.30206644 33509
STARLINK-32864          
1 62862U 25022J   25248.27755132  .00029320  00000+0  99737-3 0  9991
2 62862  53.1575 270.7581 0001402  71.2253 288.8900 15.30225123 33510
STARLINK-32808          
1 62863U 25022K   25248.23439660  .00026685  00000+0  90949-3 0  9990
2 62863  53.1576 271.2099 0001264  90.3210 269.7936 15.30213294 33505
STARLINK-32862          
1 62864U 25022L   25248.23967728  .00025106  00000+0  85652-3 0  9994
2 62864  53.1580 271.2453 0001101  46.4562 313.6530 15.30214527 33506
STARLINK-32841          
1 62865U 25022M   25248.28494734  .00036547  00000+0  12393-2 0  9994
2 62865  53.1559 270.8194 0001008  74.5437 285.5675 15.30218930 33508
STARLINK-32695          
1 62866U 25022N   25248.25644867  .00050241  00000+0  16949-2 0  9994
2 62866  53.1590 270.6367 0001441  76.6314 283.4848 15.30239437 33517
STARLINK-32846          
1 62867U 25022P   25248.27544036  .00036042  00000+0  12219-2 0  9993
2 62867  53.1571 270.7427 0001455  69.8261 290.2896 15.30232131 33518
STARLINK-32822          
1 62868U 25022Q   25248.28810489  .00007589  00000+0  26805-3 0  9994
2 62868  53.1558 270.8355 0001373  48.5151 311.5967 15.30204698 33519
STARLINK-32813          
1 62869U 25022R   25248.23757962  .00037069  00000+0  12579-2 0  9994
2 62869  53.1571 271.2327 0001341  85.2609 274.8544 15.30187645 33503
STARLINK-32861          
1 62870U 25022S   25248.25856601  .00041383  00000+0  14005-2 0  9998
2 62870  53.1596 270.6524 0001752  78.6343 281.4855 15.30224682 33514
STARLINK-32814          
1 62871U 25022T   25248.29021781  .00044668  00000+0  15110-2 0  9993
2 62871  53.1556 270.8523 0001126  73.7993 286.3132 15.30205184 33512
STARLINK-32849          
1 62872U 25022U   25248.24706528  .00024796  00000+0  84622-3 0  9993
2 62872  53.1578 271.2920 0001473  34.2538 325.8557 15.30211313 33505
STARLINK-32833          
1 62873U 25022V   25248.27649735  .00016451  00000+0  56622-3 0  9991
2 62873  53.1575 270.7660 0001399  57.1995 302.9140 15.30206486 33516
STARLINK-32793          
1 62874U 25022W   25248.29549316  .00017547  00000+0  60300-3 0  9993
2 62874  53.1560 270.8887 0001074  89.6057 270.5066 15.30208225 33512
STARLINK-32834          
1 62875U 25022X   25248.27861018  .00042284  00000+0  14300-2 0  9992
2 62875  53.1578 270.7777 0001270  88.8448 271.2698 15.30236944 33510
STARLINK-11371 [DTC]    
1 62879U 25024A   25248.28328713  .00339536  00000+0  25231-2 0  9993
2 62879  42.9996 219.3271 0004153 271.1884  88.8508 15.71023707 34302
STARLINK-11352 [DTC]    
1 62880U 25024B   25248.24612661  .00218358  00000+0  16544-2 0  9994
2 62880  42.9982 219.0273 0001882 277.2203  82.8451 15.70932994 34303
STARLINK-11382 [DTC]    
1 62881U 25024C   25248.25003472 -.00024752  00000+0 -19001-3 0  9997
2 62881  42.9999 219.3052 0001613 257.1768   4.7744 15.70834640  5995
STARLINK-11432 [DTC]    
1 62882U 25024D   25248.27798506  .00231133  00000+0  17438-2 0  9991
2 62882  43.0039 219.2848 0002939 267.2917  92.7614 15.70992524 34301
STARLINK-11419 [DTC]    
1 62883U 25024E   25248.19847103  .00272518  00000+0  20518-2 0  9996
2 62883  42.9987 219.5375 0001678 242.6621 117.4076 15.70917088 34295
STARLINK-11437 [DTC]    
1 62884U 25024F   25248.20909024  .00434949  00000+0  31692-2 0  9993
2 62884  42.9990 219.6231 0002648 240.7127 119.3476 15.71211847 34296
STARLINK-11442 [DTC]    
1 62885U 25024G   25247.98117669  .00320084  00000+0  23825-2 0  9997
2 62885  43.0005 220.4728 0001901 241.7768 118.2908 15.71045853 34267
STARLINK-11365 [DTC]    
1 62886U 25024H   25248.24081613  .00248731  00000+0  18778-2 0  9996
2 62886  42.9987 218.9812 0003004 285.9816  74.0720 15.70922654 34309
STARLINK-11436 [DTC]    
1 62887U 25024J   25248.25674610  .00134258  00000+0  10304-2 0  9998
2 62887  42.9993 219.1100 0001559 253.0436 107.0261 15.70899863 34309
STARLINK-11438 [DTC]    
1 62888U 25024K   25248.24173378  .00354601  00000+0  26187-2 0  9995
2 62888  42.9991 218.9885 0001232 201.3874 158.6943 15.71130187 34302
STARLINK-11391 [DTC]    
1 62889U 25024L   25247.29770317  .00269197  00000+0  20292-2 0  9992
2 62889  43.0013 224.8161 0002271 270.8272  89.2335 15.70897970 34156
STARLINK-11431 [DTC]    
1 62890U 25024M   25247.97599632  .00310061  00000+0  23237-2 0  9997
2 62890  42.9984 221.3237 0001083 194.3833 165.7004 15.70913271 34259
STARLINK-11435 [DTC]    
1 62891U 25024N   25248.22501741  .00248460  00000+0  18691-2 0  9992
2 62891  42.9993 219.7470 0001436 237.4554 122.6175 15.71009596 34293
STARLINK-32878          
1 62892U 25024P   25248.11778147  .00028586  00000+0  10446-2 0  9992
2 62892  43.0032 293.5097 0001090 267.5344  92.5383 15.27571019 33887
STARLINK-32892          
1 62893U 25024Q   25248.25240470  .00033320  00000+0  12146-2 0  9992
2 62893  43.0018 292.7935 0001162 242.1008 117.9726 15.27588680 33908
STARLINK-32909          
1 62894U 25024R   25248.12806016  .00033363  00000+0  12159-2 0  9994
2 62894  43.0013 293.5810 0001166 252.1341 107.9384 15.27595596 33880
STARLINK-32901          
1 62895U 25024S   25248.09978645  .00029884  00000+0  10913-2 0  9998
2 62895  43.0014 293.3636 0001914 148.9756 211.1209 15.27573368 33886
STARLINK-32890          
1 62896U 25024T   25248.13562214  .00034933  00000+0  12729-2 0  9993
2 62896  43.0016 292.7803 0001826 263.6853  96.3790 15.27581309 33896
STARLINK-32893          
1 62897U 25024U   25247.49331783  .00024975  00000+0  91567-3 0  9990
2 62897  42.9969 296.5542 0000572 210.5586 149.5233 15.27520654 33793
STARLINK-32902          
1 62898U 25024V   25248.14332834  .00060045  00000+0  21719-2 0  9991
2 62898  43.0012 292.8251 0001413 287.0773  72.9923 15.27609820 33892
STARLINK-32661          
1 62899U 25024W   25248.16903110  .00029951  00000+0  10936-2 0  9995
2 62899  42.9960 293.0207 0000708 247.3418 112.7359 15.27577642 33890
STARLINK-11552 [DTC]    
1 62907U 25027A   25247.72651513  .00240098  00000+0  18106-2 0  9990
2 62907  43.0038  28.7093 0004375 279.9574  80.0799 15.70971798 33941
STARLINK-11561 [DTC]    
1 62908U 25027B   25247.82714044  .00268699  00000+0  20200-2 0  9996
2 62908  43.0002  27.7285 0002313 281.5301  78.5307 15.70964287 33922
STARLINK-11567 [DTC]    
1 62909U 25027C   25247.67886548  .00248316  00000+0  18719-2 0  9995
2 62909  42.9988  29.2178 0001491 266.1503  93.9194 15.70960477 33899
STARLINK-11569 [DTC]    
1 62910U 25027D   25247.83775734  .00248822  00000+0  18766-2 0  9993
2 62910  42.9991  27.8123 0001756 265.5175  94.5492 15.70948512 33929
STARLINK-11537 [DTC]    
1 62911U 25027E   25247.84837677  .00167492  00000+0  12777-2 0  9999
2 62911  43.0000  27.8977 0001992 293.4660  66.5998 15.70931859 33961
STARLINK-11565 [DTC]    
1 62912U 25027F   25247.68935440  .00284225  00000+0  21337-2 0  9995
2 62912  42.9988  28.4062 0001138 253.6302 106.4440 15.70950870 33904
STARLINK-11564 [DTC]    
1 62913U 25027G   25247.66823977  .00735781  00000+0  51853-2 0  9999
2 62913  42.9985  29.1313 0003696 273.5625  86.4820 15.71122172 33893
STARLINK-11566 [DTC]    
1 62914U 25027H   25247.86430450  .00304225  00000+0  22809-2 0  9996
2 62914  43.0000  28.0242 0001868 276.2712  83.7943 15.70920595 33967
STARLINK-11555 [DTC]    
1 62915U 25027J   25247.86522575  .00242796  00000+0  18335-2 0  9990
2 62915  42.9984  28.0305 0001921 268.0947  91.9700 15.70936664 33962
STARLINK-11430 [DTC]    
1 62916U 25027K   25247.68417813  .00232277  00000+0  17573-2 0  9995
2 62916  42.9993  29.2571 0002337 281.5764  78.4841 15.70924209 33935
STARLINK-11560 [DTC]    
1 62917U 25027L   25248.00004630 -.00059840  00000+0 -46563-3 0  9999
2 62917  42.9999  26.9066 0001738 260.7595 268.1241 15.70868236  5893
STARLINK-11562 [DTC]    
1 62918U 25027M   25247.70528588  .00271868  00000+0  20464-2 0  9994
2 62918  43.0005  28.5317 0002482 286.0155  74.0439 15.70923959 33945
STARLINK-11457 [DTC]    
1 62919U 25027N   25247.82182647  .00185360  00000+0  14107-2 0  9998
2 62919  43.0007  27.6808 0002330 283.0466  77.0142 15.70930073 33924
STARLINK-32921          
1 62920U 25027P   25247.99089561  .00035450  00000+0  12913-2 0  9996
2 62920  43.0025  97.4656 0002336 266.5633  93.4952 15.27585674 33140
